ORBCOMM FM20            
1 25416U 98046D   24170.84720480  .00001120  00000+0  43555-3 0  9990
2 25416  44.9948  99.6199 0001269 324.9418  35.1346 14.35365186352026
ORBCOMM FM16            
1 25417U 98046E   24170.91732629  .00001640  00000+0  60266-3 0  9992
2 25417  44.9946  94.7530 0004182 286.6730  73.3658 14.36397627351977
ORBCOMM FM15            
1 25418U 98046F   24170.88161698  .00001415  00000+0  52958-3 0  9990
2 25418  44.9978  99.0762 0003946 290.0848  69.9574 14.36111837351979
ORBCOMM FM14            
1 25419U 98046G   24170.90136913  .00001560  00000+0  57660-3 0  9992
2 25419  44.9968  98.0403 0002564 287.9817  72.0751 14.36302000351938
ORBCOMM FM13            
1 25420U 98046H   24170.89778747  .00001355  00000+0  51486-3 0  9991
2 25420  44.9980 103.1564 0004746 268.2863  91.7441 14.35546334350995
ORBCOMM FM21            
1 25475U 98053A   24170.78098462  .00000714  00000+0  29497-3 0  9991
2 25475  45.0072 188.0862 0002534 268.0699  91.9858 14.35453842344998
ORBCOMM FM22            
1 25476U 98053B   24170.74364973  .00001033  00000+0  40035-3 0  9997
2 25476  45.0066 185.3824 0003232 241.8708 118.1813 14.36017809344988
ORBCOMM FM23            
1 25477U 98053C   24170.52956465  .00000848  00000+0  34069-3 0  9990
2 25477  45.0073 191.6860 0002874 246.9106 113.1438 14.35502189345108
